[{"OBJECT_NAME":"STARLINK-5463","OBJECT_ID":"2023-021AX","EPOCH":"2025-09-19T05:29:48.343200","MEAN_MOTION":14.98329883,"ECCENTRICITY":0.00030182,"INCLINATION":69.9988,"RA_OF_ASC_NODE":236.673,"ARG_OF_PERICENTER":268.6041,"MEAN_ANOMALY":91.4773,"EPHEMERIS_TYPE":0,"CLASSIFICATION_TYPE":"U","NORAD_CAT_ID":55673,"ELEMENT_SET_NO":999,"REV_AT_EPOCH":14360,"BSTAR":7.4306194e-5,"MEAN_MOTION_DOT":7.94e-6,"MEAN_MOTION_DDOT":0},{"OBJECT_NAME":"STARLINK-5462","OBJECT_ID":"2023-021AY","EPOCH":"2025-09-19T00:29:24.862560","MEAN_MOTION":14.98290559,"ECCENTRICITY":0.00030223,"INCLINATION":70.0005,"RA_OF_ASC_NODE":237.1514,"ARG_OF_PERICENTER":228.0117,"MEAN_ANOMALY":132.0785,"EPHEMERIS_TYPE":0,"CLASSIFICATION_TYPE":"U","NORAD_CAT_ID":55674,"ELEMENT_SET_NO":999,"REV_AT_EPOCH":14357,"BSTAR":0.0012598892,"MEAN_MOTION_DOT":0.00014957,"MEAN_MOTION_DDOT":0},{"OBJECT_NAME":"STARLINK-5232","OBJECT_ID":"2023-021AZ","EPOCH":"2025-09-19T05:05:45.678336","MEAN_MOTION":14.98328443,"ECCENTRICITY":0.00036662,"INCLINATION":69.9981,"RA_OF_ASC_NODE":236.6177,"ARG_OF_PERICENTER":268.2747,"MEAN_ANOMALY":91.7992,"EPHEMERIS_TYPE":0,"CLASSIFICATION_TYPE":"U","NORAD_CAT_ID":55675,"ELEMENT_SET_NO":999,"REV_AT_EPOCH":14360,"BSTAR":6.1324308e-5,"MEAN_MOTION_DOT":6.39e-6,"MEAN_MOTION_DDOT":0},{"OBJECT_NAME":"STARLINK-5300","OBJECT_ID":"2023-021BA","EPOCH":"2025-09-19T00:41:19.103712","MEAN_MOTION":14.98328117,"ECCENTRICITY":0.00030324,"INCLINATION":69.9994,"RA_OF_ASC_NODE":217.3092,"ARG_OF_PERICENTER":271.6481,"MEAN_ANOMALY":88.4331,"EPHEMERIS_TYPE":0,"CLASSIFICATION_TYPE":"U","NORAD_CAT_ID":55676,"ELEMENT_SET_NO":999,"REV_AT_EPOCH":14406,"BSTAR":5.37733e-5,"MEAN_MOTION_DOT":5.49e-6,"MEAN_MOTION_DDOT":0},{"OBJECT_NAME":"STARLINK-5324","OBJECT_ID":"2023-021BB","EPOCH":"2025-09-19T06:47:35.208096","MEAN_MOTION":14.98327565,"ECCENTRICITY":0.00032795,"INCLINATION":69.9992,"RA_OF_ASC_NODE":216.5877,"ARG_OF_PERICENTER":265.077,"MEAN_ANOMALY":95.0014,"EPHEMERIS_TYPE":0,"CLASSIFICATION_TYPE":"U","NORAD_CAT_ID":55677,"ELEMENT_SET_NO":999,"REV_AT_EPOCH":14410,"BSTAR":2.7310549e-5,"MEAN_MOTION_DOT":2.33e-6,"MEAN_MOTION_DDOT":0},{"OBJECT_NAME":"STARLINK-5592","OBJECT_ID":"2023-028A","EPOCH":"2025-09-19T03:49:01.668576","MEAN_MOTION":14.98346685,"ECCENTRICITY":0.00037379,"INCLINATION":69.9981,"RA_OF_ASC_NODE":317.0625,"ARG_OF_PERICENTER":271.4833,"MEAN_ANOMALY":88.5898,"EPHEMERIS_TYPE":0,"CLASSIFICATION_TYPE":"U","NORAD_CAT_ID":55741,"ELEMENT_SET_NO":999,"REV_AT_EPOCH":14053,"BSTAR":-0.00059130993,"MEAN_MOTION_DOT":-7.145e-5,"MEAN_MOTION_DDOT":0},{"OBJECT_NAME":"STARLINK-5594","OBJECT_ID":"2023-028B","EPOCH":"2025-09-18T13:29:49.022880","MEAN_MOTION":14.98333458,"ECCENTRICITY":0.00031664,"INCLINATION":69.9997,"RA_OF_ASC_NODE":318.5941,"ARG_OF_PERICENTER":267.2798,"MEAN_ANOMALY":92.7998,"EPHEMERIS_TYPE":0,"CLASSIFICATION_TYPE":"U","NORAD_CAT_ID":55742,"ELEMENT_SET_NO":999,"REV_AT_EPOCH":14025,"BSTAR":0.0001055162,"MEAN_MOTION_DOT":1.166e-5,"MEAN_MOTION_DDOT":0},{"OBJECT_NAME":"STARLINK-5602","OBJECT_ID":"2023-028C","EPOCH":"2025-09-19T04:01:02.302464","MEAN_MOTION":14.9833094,"ECCENTRICITY":0.00033737,"INCLINATION":69.9995,"RA_OF_ASC_NODE":317.0932,"ARG_OF_PERICENTER":270.237,"MEAN_ANOMALY":89.8402,"EPHEMERIS_TYPE":0,"CLASSIFICATION_TYPE":"U","NORAD_CAT_ID":55743,"ELEMENT_SET_NO":999,"REV_AT_EPOCH":14034,"BSTAR":1.972643e-5,"MEAN_MOTION_DOT":1.42e-6,"MEAN_MOTION_DDOT":0},{"OBJECT_NAME":"STARLINK-5601","OBJECT_ID":"2023-028D","EPOCH":"2025-09-19T03:55:15.894624","MEAN_MOTION":14.98331506,"ECCENTRICITY":0.00030988,"INCLINATION":69.9995,"RA_OF_ASC_NODE":317.0771,"ARG_OF_PERICENTER":270.5151,"MEAN_ANOMALY":89.5653,"EPHEMERIS_TYPE":0,"CLASSIFICATION_TYPE":"U","NORAD_CAT_ID":55744,"ELEMENT_SET_NO":999,"REV_AT_EPOCH":14034,"BSTAR":6.0376357e-5,"MEAN_MOTION_DOT":6.27e-6,"MEAN_MOTION_DDOT":0},{"OBJECT_NAME":"STARLINK-5579","OBJECT_ID":"2023-028F","EPOCH":"2025-09-19T03:12:57.083328","MEAN_MOTION":14.98331158,"ECCENTRICITY":0.00033774,"INCLINATION":69.9987,"RA_OF_ASC_NODE":316.9766,"ARG_OF_PERICENTER":272.0353,"MEAN_ANOMALY":88.0419,"EPHEMERIS_TYPE":0,"CLASSIFICATION_TYPE":"U","NORAD_CAT_ID":55746,"ELEMENT_SET_NO":999,"REV_AT_EPOCH":14034,"BSTAR":3.5213199e-5,"MEAN_MOTION_DOT":3.27e-6,"MEAN_MOTION_DDOT":0},{"OBJECT_NAME":"STARLINK-5539","OBJECT_ID":"2023-028G","EPOCH":"2025-09-18T13:11:47.311296","MEAN_MOTION":14.98331398,"ECCENTRICITY":0.00030958,"INCLINATION":69.9991,"RA_OF_ASC_NODE":318.5506,"ARG_OF_PERICENTER":268.681,"MEAN_ANOMALY":91.3995,"EPHEMERIS_TYPE":0,"CLASSIFICATION_TYPE":"U","NORAD_CAT_ID":55747,"ELEMENT_SET_NO":999,"REV_AT_EPOCH":14025,"BSTAR":6.4086464e-5,"MEAN_MOTION_DOT":6.72e-6,"MEAN_MOTION_DDOT":0},{"OBJECT_NAME":"STARLINK-5580","OBJECT_ID":"2023-028H","EPOCH":"2025-09-18T13:05:46.647456","MEAN_MOTION":14.98348342,"ECCENTRICITY":0.0003368,"INCLINATION":69.9985,"RA_OF_ASC_NODE":318.5351,"ARG_OF_PERICENTER":268.6758,"MEAN_ANOMALY":91.4016,"EPHEMERIS_TYPE":0,"CLASSIFICATION_TYPE":"U","NORAD_CAT_ID":55748,"ELEMENT_SET_NO":999,"REV_AT_EPOCH":14025,"BSTAR":-0.00030278498,"MEAN_MOTION_DOT":-3.706e-5,"MEAN_MOTION_DDOT":0},{"OBJECT_NAME":"STARLINK-5573","OBJECT_ID":"2023-028K","EPOCH":"2025-09-18T12:59:45.987072","MEAN_MOTION":14.98330725,"ECCENTRICITY":0.00031123,"INCLINATION":69.9992,"RA_OF_ASC_NODE":318.5196,"ARG_OF_PERICENTER":273.4879,"MEAN_ANOMALY":86.5924,"EPHEMERIS_TYPE":0,"CLASSIFICATION_TYPE":"U","NORAD_CAT_ID":55750,"ELEMENT_SET_NO":999,"REV_AT_EPOCH":14025,"BSTAR":5.1617395e-5,"MEAN_MOTION_DOT":5.23e-6,"MEAN_MOTION_DDOT":0},{"OBJECT_NAME":"STARLINK-5577","OBJECT_ID":"2023-028L","EPOCH":"2025-09-18T13:17:48.114240","MEAN_MOTION":14.98327393,"ECCENTRICITY":0.00030666,"INCLINATION":69.9991,"RA_OF_ASC_NODE":318.5645,"ARG_OF_PERICENTER":267.3595,"MEAN_ANOMALY":92.7213,"EPHEMERIS_TYPE":0,"CLASSIFICATION_TYPE":"U","NORAD_CAT_ID":55751,"ELEMENT_SET_NO":999,"REV_AT_EPOCH":14025,"BSTAR":-9.439397e-6,"MEAN_MOTION_DOT":-2.06e-6,"MEAN_MOTION_DDOT":0},{"OBJECT_NAME":"STARLINK-5613","OBJECT_ID":"2023-028M","EPOCH":"2025-09-19T02:48:54.498816","MEAN_MOTION":14.98331397,"ECCENTRICITY":0.00034082,"INCLINATION":69.999,"RA_OF_ASC_NODE":316.917,"ARG_OF_PERICENTER":267.6243,"MEAN_ANOMALY":92.4526,"EPHEMERIS_TYPE":0,"CLASSIFICATION_TYPE":"U","NORAD_CAT_ID":55752,"ELEMENT_SET_NO":999,"REV_AT_EPOCH":14034,"BSTAR":2.1205655e-5,"MEAN_MOTION_DOT":1.6e-6,"MEAN_MOTION_DDOT":0},{"OBJECT_NAME":"STARLINK-5617","OBJECT_ID":"2023-028N","EPOCH":"2025-09-19T03:13:11.470656","MEAN_MOTION":14.98330617,"ECCENTRICITY":0.00031289,"INCLINATION":69.9987,"RA_OF_ASC_NODE":316.977,"ARG_OF_PERICENTER":269.4509,"MEAN_ANOMALY":90.6292,"EPHEMERIS_TYPE":0,"CLASSIFICATION_TYPE":"U","NORAD_CAT_ID":55753,"ELEMENT_SET_NO":999,"REV_AT_EPOCH":14034,"BSTAR":1.3341742e-5,"MEAN_MOTION_DOT":6.6e-7,"MEAN_MOTION_DDOT":0},{"OBJECT_NAME":"STARLINK-5612","OBJECT_ID":"2023-028P","EPOCH":"2025-09-19T03:00:55.842048","MEAN_MOTION":14.98332111,"ECCENTRICITY":0.00033424,"INCLINATION":69.9994,"RA_OF_ASC_NODE":316.9454,"ARG_OF_PERICENTER":270.974,"MEAN_ANOMALY":89.1036,"EPHEMERIS_TYPE":0,"CLASSIFICATION_TYPE":"U","NORAD_CAT_ID":55754,"ELEMENT_SET_NO":999,"REV_AT_EPOCH":14034,"BSTAR":1.3384743e-5,"MEAN_MOTION_DOT":6.7e-7,"MEAN_MOTION_DDOT":0},{"OBJECT_NAME":"STARLINK-5619","OBJECT_ID":"2023-028Q","EPOCH":"2025-09-19T02:43:06.095136","MEAN_MOTION":14.98567063,"ECCENTRICITY":0.00040807,"INCLINATION":69.9994,"RA_OF_ASC_NODE":316.894,"ARG_OF_PERICENTER":252.9631,"MEAN_ANOMALY":107.1081,"EPHEMERIS_TYPE":0,"CLASSIFICATION_TYPE":"U","NORAD_CAT_ID":55755,"ELEMENT_SET_NO":999,"REV_AT_EPOCH":14034,"BSTAR":-0.0038012129,"MEAN_MOTION_DOT":-0.00045438,"MEAN_MOTION_DDOT":0},{"OBJECT_NAME":"STARLINK-5614","OBJECT_ID":"2023-028R","EPOCH":"2025-09-18T13:47:48.751584","MEAN_MOTION":14.98336604,"ECCENTRICITY":0.00032844,"INCLINATION":69.9998,"RA_OF_ASC_NODE":318.2328,"ARG_OF_PERICENTER":268.3541,"MEAN_ANOMALY":91.7242,"EPHEMERIS_TYPE":0,"CLASSIFICATION_TYPE":"U","NORAD_CAT_ID":55756,"ELEMENT_SET_NO":999,"REV_AT_EPOCH":14026,"BSTAR":-1.9821021e-5,"MEAN_MOTION_DOT":-3.3e-6,"MEAN_MOTION_DDOT":0},{"OBJECT_NAME":"STARLINK-5544","OBJECT_ID":"2023-028S","EPOCH":"2025-09-18T14:17:51.815904","MEAN_MOTION":14.98333976,"ECCENTRICITY":0.0003231,"INCLINATION":69.9992,"RA_OF_ASC_NODE":318.3073,"ARG_OF_PERICENTER":271.6812,"MEAN_ANOMALY":88.3977,"EPHEMERIS_TYPE":0,"CLASSIFICATION_TYPE":"U","NORAD_CAT_ID":55757,"ELEMENT_SET_NO":999,"REV_AT_EPOCH":14026,"BSTAR":1.1710162e-5,"MEAN_MOTION_DOT":4.7e-7,"MEAN_MOTION_DDOT":0},{"OBJECT_NAME":"STARLINK-5072","OBJECT_ID":"2023-028T","EPOCH":"2025-09-19T02:54:55.142784","MEAN_MOTION":14.98331241,"ECCENTRICITY":0.00036795,"INCLINATION":69.9987,"RA_OF_ASC_NODE":316.9311,"ARG_OF_PERICENTER":269.5161,"MEAN_ANOMALY":90.5576,"EPHEMERIS_TYPE":0,"CLASSIFICATION_TYPE":"U","NORAD_CAT_ID":55758,"ELEMENT_SET_NO":999,"REV_AT_EPOCH":14034,"BSTAR":2.8041096e-5,"MEAN_MOTION_DOT":2.42e-6,"MEAN_MOTION_DDOT":0},{"OBJECT_NAME":"STARLINK-5532","OBJECT_ID":"2023-028V","EPOCH":"2025-09-18T13:41:48.006528","MEAN_MOTION":14.9833159,"ECCENTRICITY":0.00033729,"INCLINATION":69.9998,"RA_OF_ASC_NODE":318.2189,"ARG_OF_PERICENTER":268.9816,"MEAN_ANOMALY":91.0956,"EPHEMERIS_TYPE":0,"CLASSIFICATION_TYPE":"U","NORAD_CAT_ID":55760,"ELEMENT_SET_NO":999,"REV_AT_EPOCH":14026,"BSTAR":2.3205632e-5,"MEAN_MOTION_DOT":1.84e-6,"MEAN_MOTION_DDOT":0},{"OBJECT_NAME":"STARLINK-5611","OBJECT_ID":"2023-028W","EPOCH":"2025-09-19T02:00:46.604736","MEAN_MOTION":14.98329949,"ECCENTRICITY":0.0003082,"INCLINATION":69.9986,"RA_OF_ASC_NODE":297.3198,"ARG_OF_PERICENTER":266.7884,"MEAN_ANOMALY":93.2922,"EPHEMERIS_TYPE":0,"CLASSIFICATION_TYPE":"U","NORAD_CAT_ID":55761,"ELEMENT_SET_NO":999,"REV_AT_EPOCH":14082,"BSTAR":4.9860261e-5,"MEAN_MOTION_DOT":5.02e-6,"MEAN_MOTION_DDOT":0}]
